STARLINK-31521          
1 59015U 24036T   26068.26048187 -.00000510  00000+0 -51104-5 0  9996
2 59015  53.1608  80.3916 0001150  77.6173 282.4956 15.30193288115250
NUSHSAT1                
1 63211U 25052B   26068.64700493  .00023034  00000+0  74857-3 0  9997
2 63211  97.4095 325.7239 0005501  84.7512 275.4357 15.31903202 54882
